{
"type": "FeatureCollection",
"name": "tl_2025_us_aiannh",
"crs": { "type": "name", "properties": { "name": "urn:ogc:def:crs:OGC:1.3:CRS84" } },
"features": [
{ "type": "Feature", "properties": { "AIANNHCE": "2490", "AIANNHNS": "01637567", "GEOID": "2490T", "GEOIDFQ": "2540000US2490T", "NAME": "Northern Cheyenne", "NAMELSAD": "Northern Cheyenne Off-Reservation Trust Land", "LSAD": "OT", "CLASSFP": "D5", "COMPTYP": "T", "AIANNHR": "F", "MTFCC": "G2102", "FUNCSTAT": "A", "ALAND": 26446649, "AWATER": 31616, "INTPTLAT": "+45.3784418", "INTPTLON": "-106.6550060" }, "geometry": { "type": "MultiPolygon", "coordinates": [ [ [ [ -103.418147, 44.466969 ], [ -103.415588, 44.466977 ], [ -103.408015, 44.466999 ], [ -103.407994, 44.467298 ], [ -103.40798, 44.474493 ], [ -103.399373, 44.474567 ], [ -103.397918, 44.47458 ], [ -103.397691, 44.473948 ], [ -103.39768, 44.472752 ], [ -103.397765, 44.467153 ], [ -103.397888, 44.463498 ], [ -103.398164, 44.463495 ], [ -103.408082, 44.463429 ], [ -103.408051, 44.463058 ], [ -103.408112, 44.460143 ], [ -103.418108, 44.460049 ], [ -103.418147, 44.466969 ] ] ], [ [ [ -103.418361, 44.488647 ], [ -103.409442, 44.488895 ], [ -103.408454, 44.488925 ], [ -103.408465, 44.48185 ], [ -103.413504, 44.481799 ], [ -103.418349, 44.481807 ], [ -103.418361, 44.488647 ] ] ], [ [ [ -103.439133, 44.467418 ], [ -103.439133, 44.470523 ], [ -103.428009, 44.470526 ], [ -103.428023, 44.469036 ], [ -103.428026, 44.466988 ], [ -103.428028, 44.46575 ], [ -103.428031, 44.464171 ], [ -103.43049, 44.464296 ], [ -103.43342, 44.464152 ], [ -103.433431, 44.46722 ], [ -103.437517, 44.4672 ], [ -103.439133, 44.467222 ], [ -103.439133, 44.467418 ] ] ], [ [ [ -106.287952, 45.603172 ], [ -106.287564, 45.603634 ], [ -106.286528, 45.604243 ], [ -106.286118, 45.604515 ], [ -106.285543, 45.604712 ], [ -106.285514, 45.604713 ], [ -106.285037, 45.60473 ], [ -106.28422, 45.604638 ], [ -106.2839, 45.604627 ], [ -106.283442, 45.604256 ], [ -106.283209, 45.603987 ], [ -106.283042, 45.603557 ], [ -106.283122, 45.603114 ], [ -106.28358, 45.602663 ], [ -106.283828, 45.602234 ], [ -106.2839, 45.602059 ], [ -106.284162, 45.601397 ], [ -106.284206, 45.601172 ], [ -106.284062, 45.600903 ], [ -106.283813, 45.600415 ], [ -106.283509, 45.600209 ], [ -106.283516, 45.599029 ], [ -106.283524, 45.59778 ], [ -106.286426, 45.597758 ], [ -106.287658, 45.597749 ], [ -106.28781, 45.597748 ], [ -106.287746, 45.597888 ], [ -106.287084, 45.598267 ], [ -106.286934, 45.598546 ], [ -106.286934, 45.598888 ], [ -106.287763, 45.599288 ], [ -106.28793, 45.599528 ], [ -106.287843, 45.599899 ], [ -106.28745, 45.60024 ], [ -106.287385, 45.600721 ], [ -106.287478, 45.601045 ], [ -106.287532, 45.601436 ], [ -106.287836, 45.602043 ], [ -106.28792, 45.602253 ], [ -106.288085, 45.602663 ], [ -106.287952, 45.603172 ] ] ], [ [ [ -106.290969, 45.56462 ], [ -106.290379, 45.565652 ], [ -106.289611, 45.566589 ], [ -106.288789, 45.566705 ], [ -106.287779, 45.565884 ], [ -106.286884, 45.564905 ], [ -106.286473, 45.564347 ], [ -106.285401, 45.564091 ], [ -106.285401, 45.563994 ], [ -106.285402, 45.563443 ], [ -106.285407, 45.561502 ], [ -106.285409, 45.560856 ], [ -106.285409, 45.560709 ], [ -106.285409, 45.560559 ], [ -106.285698, 45.560559 ], [ -106.285845, 45.560559 ], [ -106.286842, 45.560559 ], [ -106.289833, 45.560559 ], [ -106.290634, 45.56056 ], [ -106.290732, 45.56056 ], [ -106.290831, 45.56056 ], [ -106.290664, 45.561251 ], [ -106.290221, 45.56202 ], [ -106.290253, 45.562462 ], [ -106.290695, 45.563209 ], [ -106.291148, 45.563641 ], [ -106.290969, 45.56462 ] ] ], [ [ [ -106.291404, 45.661977 ], [ -106.290976, 45.66281 ], [ -106.290916, 45.662929 ], [ -106.29032, 45.663389 ], [ -106.28972, 45.663712 ], [ -106.289595, 45.663723 ], [ -106.289595, 45.663662 ], [ -106.289595, 45.663602 ], [ -106.289599, 45.662336 ], [ -106.289614, 45.658178 ], [ -106.289619, 45.657035 ], [ -106.28962, 45.656914 ], [ -106.28962, 45.656793 ], [ -106.290098, 45.656963 ], [ -106.290221, 45.657142 ], [ -106.29042, 45.657383 ], [ -106.290687, 45.657818 ], [ -106.290756, 45.657946 ], [ -106.29105, 45.658493 ], [ -106.291188, 45.660276 ], [ -106.291399, 45.660906 ], [ -106.291409, 45.661345 ], [ -106.291404, 45.661977 ] ] ], [ [ [ -106.295409, 45.554545 ], [ -106.294792, 45.554853 ], [ -106.294605, 45.554945 ], [ -106.294344, 45.555076 ], [ -106.293377, 45.555532 ], [ -106.292586, 45.555732 ], [ -106.292071, 45.555774 ], [ -106.291685, 45.555902 ], [ -106.291137, 45.555923 ], [ -106.291175, 45.555722 ], [ -106.291175, 45.555665 ], [ -106.291171, 45.55448 ], [ -106.291169, 45.553625 ], [ -106.294139, 45.554269 ], [ -106.29514, 45.554487 ], [ -106.295274, 45.554516 ], [ -106.295409, 45.554545 ] ] ], [ [ [ -106.29737, 45.586429 ], [ -106.29719, 45.586956 ], [ -106.296506, 45.587432 ], [ -106.296025, 45.587836 ], [ -106.295832, 45.587999 ], [ -106.295097, 45.588299 ], [ -106.294812, 45.588528 ], [ -106.294819, 45.588305 ], [ -106.294819, 45.588232 ], [ -106.294819, 45.587792 ], [ -106.294824, 45.58599 ], [ -106.295465, 45.585257 ], [ -106.295617, 45.584951 ], [ -106.296007, 45.58491 ], [ -106.296032, 45.584908 ], [ -106.296249, 45.584906 ], [ -106.296506, 45.585068 ], [ -106.296587, 45.585411 ], [ -106.29689, 45.58563 ], [ -106.297203, 45.58597 ], [ -106.29737, 45.586429 ] ] ], [ [ [ -106.305076, 45.549871 ], [ -106.304909, 45.550159 ], [ -106.304174, 45.550326 ], [ -106.303604, 45.550407 ], [ -106.303498, 45.550423 ], [ -106.303063, 45.550402 ], [ -106.302607, 45.550242 ], [ -106.301971, 45.549951 ], [ -106.301449, 45.549712 ], [ -106.301452, 45.549604 ], [ -106.301455, 45.549495 ], [ -106.301458, 45.549362 ], [ -106.301487, 45.548316 ], [ -106.301489, 45.548266 ], [ -106.301493, 45.548116 ], [ -106.301497, 45.547967 ], [ -106.301623, 45.548508 ], [ -106.302562, 45.549098 ], [ -106.303122, 45.549326 ], [ -106.304455, 45.549265 ], [ -106.304985, 45.549492 ], [ -106.305076, 45.549871 ] ] ], [ [ [ -106.318125, 45.53198 ], [ -106.317868, 45.532203 ], [ -106.317814, 45.532386 ], [ -106.317792, 45.532678 ], [ -106.317878, 45.532927 ], [ -106.318019, 45.533176 ], [ -106.317543, 45.533619 ], [ -106.316916, 45.533932 ], [ -106.316386, 45.534019 ], [ -106.315673, 45.534073 ], [ -106.315165, 45.533997 ], [ -106.31483, 45.533716 ], [ -106.314668, 45.533241 ], [ -106.314505, 45.532895 ], [ -106.314495, 45.532289 ], [ -106.314603, 45.532008 ], [ -106.314867, 45.531987 ], [ -106.31497, 45.531987 ], [ -106.315436, 45.531985 ], [ -106.317452, 45.531981 ], [ -106.318003, 45.53198 ], [ -106.318125, 45.53198 ] ] ], [ [ [ -106.323611, 45.540419 ], [ -106.323411, 45.54112 ], [ -106.323189, 45.541682 ], [ -106.322997, 45.542076 ], [ -106.322922, 45.542259 ], [ -106.322597, 45.542508 ], [ -106.322176, 45.5428 ], [ -106.321603, 45.543081 ], [ -106.32103, 45.543168 ], [ -106.321153, 45.542317 ], [ -106.321153, 45.54226 ], [ -106.321153, 45.541138 ], [ -106.321155, 45.53743 ], [ -106.321156, 45.536448 ], [ -106.321156, 45.536321 ], [ -106.321156, 45.536194 ], [ -106.321762, 45.536755 ], [ -106.322478, 45.537204 ], [ -106.322535, 45.537279 ], [ -106.323225, 45.538186 ], [ -106.323586, 45.538957 ], [ -106.323554, 45.539911 ], [ -106.323611, 45.540419 ] ] ], [ [ [ -106.330169, 45.53111 ], [ -106.32959, 45.531672 ], [ -106.328924, 45.531741 ], [ -106.328102, 45.531655 ], [ -106.327514, 45.531473 ], [ -106.327211, 45.531438 ], [ -106.326733, 45.531271 ], [ -106.326174, 45.531328 ], [ -106.32533, 45.531592 ], [ -106.325332, 45.531521 ], [ -106.325334, 45.53145 ], [ -106.32535, 45.530888 ], [ -106.325413, 45.528776 ], [ -106.325428, 45.528292 ], [ -106.325432, 45.528182 ], [ -106.325435, 45.528073 ], [ -106.325919, 45.528167 ], [ -106.327357, 45.528557 ], [ -106.327531, 45.528608 ], [ -106.328522, 45.528899 ], [ -106.329199, 45.529259 ], [ -106.329621, 45.529521 ], [ -106.329955, 45.529873 ], [ -106.330316, 45.530452 ], [ -106.330169, 45.53111 ] ] ], [ [ [ -106.607146, 45.390236 ], [ -106.607053, 45.396448 ], [ -106.60702, 45.398623 ], [ -106.606513, 45.398393 ], [ -106.605439, 45.398212 ], [ -106.605104, 45.398146 ], [ -106.604909, 45.398037 ], [ -106.604815, 45.397856 ], [ -106.604504, 45.397598 ], [ -106.604325, 45.397636 ], [ -106.603764, 45.397955 ], [ -106.603414, 45.398054 ], [ -106.603095, 45.398257 ], [ -106.602913, 45.398383 ], [ -106.602962, 45.398054 ], [ -106.603056, 45.397889 ], [ -106.603235, 45.397818 ], [ -106.603235, 45.39778 ], [ -106.603094, 45.397599 ], [ -106.602728, 45.39756 ], [ -106.60251, 45.397462 ], [ -106.602627, 45.397379 ], [ -106.602806, 45.397341 ], [ -106.602899, 45.397204 ], [ -106.602627, 45.397094 ], [ -106.602494, 45.396913 ], [ -106.602081, 45.396831 ], [ -106.601591, 45.396645 ], [ -106.601123, 45.396381 ], [ -106.600866, 45.396354 ], [ -106.600594, 45.396464 ], [ -106.60036, 45.396491 ], [ -106.600088, 45.396656 ], [ -106.600072, 45.396738 ], [ -106.60015, 45.396782 ], [ -106.600563, 45.396809 ], [ -106.600602, 45.396766 ], [ -106.600874, 45.396754 ], [ -106.601186, 45.397095 ], [ -106.601069, 45.397193 ], [ -106.600563, 45.397303 ], [ -106.600501, 45.397386 ], [ -106.600602, 45.39744 ], [ -106.600579, 45.397534 ], [ -106.600112, 45.397644 ], [ -106.599785, 45.397578 ], [ -106.599683, 45.397342 ], [ -106.599192, 45.397073 ], [ -106.598998, 45.397019 ], [ -106.598787, 45.39703 ], [ -106.598453, 45.397304 ], [ -106.598126, 45.397293 ], [ -106.598048, 45.397249 ], [ -106.597884, 45.396992 ], [ -106.597635, 45.396756 ], [ -106.597323, 45.396635 ], [ -106.597222, 45.396635 ], [ -106.597105, 45.396717 ], [ -106.597105, 45.396926 ], [ -106.596911, 45.397019 ], [ -106.59674, 45.397145 ], [ -106.596545, 45.397173 ], [ -106.596215, 45.397471 ], [ -106.596015, 45.397294 ], [ -106.595428, 45.397141 ], [ -106.595587, 45.396884 ], [ -106.595587, 45.396773 ], [ -106.595291, 45.396844 ], [ -106.594784, 45.396748 ], [ -106.594886, 45.396351 ], [ -106.594761, 45.396241 ], [ -106.594216, 45.396285 ], [ -106.593866, 45.396269 ], [ -106.593632, 45.396175 ], [ -106.59311, 45.396406 ], [ -106.592643, 45.396423 ], [ -106.592324, 45.396549 ], [ -106.592207, 45.396659 ], [ -106.592098, 45.396944 ], [ -106.592137, 45.397108 ], [ -106.592056, 45.397164 ], [ -106.592158, 45.397235 ], [ -106.592346, 45.397306 ], [ -106.592307, 45.3974 ], [ -106.592276, 45.397455 ], [ -106.592221, 45.39751 ], [ -106.591969, 45.397502 ], [ -106.591851, 45.397502 ], [ -106.591655, 45.397424 ], [ -106.591474, 45.397361 ], [ -106.591482, 45.397314 ], [ -106.591521, 45.397204 ], [ -106.591395, 45.397125 ], [ -106.591144, 45.397109 ], [ -106.591026, 45.397125 ], [ -106.590994, 45.397235 ], [ -106.590923, 45.397377 ], [ -106.590963, 45.39755 ], [ -106.590867, 45.397594 ], [ -106.590963, 45.397683 ], [ -106.59075, 45.397817 ], [ -106.590593, 45.397943 ], [ -106.590546, 45.3981 ], [ -106.590397, 45.398163 ], [ -106.590098, 45.398147 ], [ -106.58998, 45.398131 ], [ -106.589634, 45.398013 ], [ -106.589705, 45.397974 ], [ -106.589838, 45.397951 ], [ -106.590004, 45.397895 ], [ -106.589917, 45.397801 ], [ -106.589832, 45.39773 ], [ -106.589665, 45.39773 ], [ -106.589453, 45.397691 ], [ -106.589233, 45.397691 ], [ -106.589014, 45.397714 ], [ -106.589052, 45.397817 ], [ -106.589131, 45.397951 ], [ -106.589076, 45.398006 ], [ -106.588659, 45.397966 ], [ -106.5884, 45.397888 ], [ -106.588541, 45.397817 ], [ -106.588547, 45.397725 ], [ -106.588463, 45.397667 ], [ -106.588321, 45.397636 ], [ -106.588308, 45.397556 ], [ -106.588195, 45.397518 ], [ -106.58816, 45.397435 ], [ -106.588153, 45.397414 ], [ -106.588109, 45.396999 ], [ -106.587999, 45.396983 ], [ -106.587967, 45.397023 ], [ -106.587814, 45.397102 ], [ -106.587652, 45.397198 ], [ -106.587575, 45.397182 ], [ -106.587134, 45.397094 ], [ -106.586922, 45.397054 ], [ -106.586733, 45.397086 ], [ -106.586497, 45.397141 ], [ -106.586261, 45.397141 ], [ -106.586175, 45.397023 ], [ -106.58597, 45.396944 ], [ -106.585829, 45.396905 ], [ -106.585734, 45.396858 ], [ -106.585915, 45.396748 ], [ -106.586159, 45.396755 ], [ -106.586143, 45.396598 ], [ -106.586296, 45.396613 ], [ -106.586497, 45.396575 ], [ -106.586701, 45.396693 ], [ -106.586867, 45.396693 ], [ -106.586796, 45.39659 ], [ -106.586758, 45.39649 ], [ -106.586787, 45.396292 ], [ -106.586804, 45.396182 ], [ -106.586568, 45.39615 ], [ -106.586458, 45.39615 ], [ -106.586253, 45.396142 ], [ -106.58619, 45.396087 ], [ -106.586159, 45.395961 ], [ -106.586277, 45.395867 ], [ -106.586245, 45.395765 ], [ -106.585695, 45.395545 ], [ -106.585585, 45.395545 ], [ -106.585428, 45.395553 ], [ -106.585365, 45.395686 ], [ -106.585494, 45.39579 ], [ -106.585514, 45.395938 ], [ -106.585318, 45.395977 ], [ -106.585066, 45.39593 ], [ -106.584901, 45.39582 ], [ -106.584901, 45.395592 ], [ -106.584777, 45.395516 ], [ -106.584555, 45.395474 ], [ -106.584296, 45.395466 ], [ -106.583973, 45.395317 ], [ -106.584036, 45.395214 ], [ -106.584172, 45.395146 ], [ -106.586587, 45.395149 ], [ -106.586594, 45.394709 ], [ -106.58664, 45.39188 ], [ -106.586647, 45.391516 ], [ -106.583538, 45.391682 ], [ -106.581324, 45.3918 ], [ -106.581317, 45.391838 ], [ -106.580963, 45.393908 ], [ -106.581091, 45.394914 ], [ -106.580938, 45.394784 ], [ -106.58084, 45.394737 ], [ -106.580759, 45.394664 ], [ -106.580575, 45.394548 ], [ -106.580455, 45.394484 ], [ -106.580442, 45.394377 ], [ -106.58056, 45.394331 ], [ -106.580545, 45.394223 ], [ -106.580383, 45.394195 ], [ -106.580306, 45.394236 ], [ -106.58013, 45.394352 ], [ -106.579989, 45.394356 ], [ -106.57978, 45.394296 ], [ -106.57975, 45.394223 ], [ -106.579656, 45.394088 ], [ -106.579489, 45.394044 ], [ -106.579386, 45.394057 ], [ -106.579343, 45.394129 ], [ -106.579373, 45.394223 ], [ -106.579433, 45.394309 ], [ -106.579489, 45.394373 ], [ -106.579459, 45.394463 ], [ -106.57942, 45.39454 ], [ -106.579207, 45.394493 ], [ -106.579121, 45.394394 ], [ -106.578989, 45.394335 ], [ -106.578877, 45.394352 ], [ -106.578728, 45.394471 ], [ -106.578723, 45.394621 ], [ -106.578912, 45.394651 ], [ -106.579204, 45.394621 ], [ -106.579311, 45.394697 ], [ -106.579438, 45.394784 ], [ -106.579326, 45.394955 ], [ -106.579147, 45.395036 ], [ -106.578963, 45.395019 ], [ -106.578505, 45.394916 ], [ -106.578334, 45.394899 ], [ -106.578172, 45.39489 ], [ -106.578056, 45.394925 ], [ -106.577911, 45.394967 ], [ -106.57774, 45.394997 ], [ -106.577676, 45.395006 ], [ -106.577569, 45.3951 ], [ -106.577612, 45.395215 ], [ -106.577686, 45.395317 ], [ -106.577753, 45.395327 ], [ -106.577855, 45.395519 ], [ -106.5778, 45.395639 ], [ -106.577718, 45.395712 ], [ -106.577483, 45.395716 ], [ -106.577346, 45.39569 ], [ -106.577188, 45.395677 ], [ -106.576962, 45.395605 ], [ -106.576957, 45.395528 ], [ -106.577069, 45.395382 ], [ -106.577004, 45.39516 ], [ -106.576919, 45.394985 ], [ -106.576773, 45.394852 ], [ -106.576702, 45.39455 ], [ -106.576572, 45.394527 ], [ -106.576389, 45.394506 ], [ -106.576256, 45.394565 ], [ -106.576089, 45.394591 ], [ -106.575982, 45.394553 ], [ -106.575858, 45.394497 ], [ -106.575739, 45.394446 ], [ -106.57552, 45.394386 ], [ -106.575349, 45.394253 ], [ -106.575316, 45.393925 ], [ -106.575334, 45.393921 ], [ -106.575391, 45.393911 ], [ -106.57541, 45.393908 ], [ -106.575565, 45.393963 ], [ -106.57576, 45.393864 ], [ -106.575795, 45.393771 ], [ -106.575877, 45.393562 ], [ -106.575799, 45.393332 ], [ -106.575464, 45.393069 ], [ -106.575113, 45.393003 ], [ -106.574917, 45.392991 ], [ -106.574436, 45.392965 ], [ -106.574257, 45.392581 ], [ -106.573805, 45.392169 ], [ -106.572769, 45.391857 ], [ -106.572692, 45.391857 ], [ -106.572481, 45.391977 ], [ -106.57252, 45.392213 ], [ -106.572271, 45.392405 ], [ -106.572014, 45.392498 ], [ -106.57196, 45.392707 ], [ -106.571393, 45.392983 ], [ -106.571173, 45.393091 ], [ -106.570846, 45.393146 ], [ -106.570807, 45.393184 ], [ -106.570613, 45.393146 ], [ -106.570535, 45.393025 ], [ -106.570512, 45.392916 ], [ -106.570745, 45.392762 ], [ -106.570745, 45.392652 ], [ -106.570589, 45.392543 ], [ -106.570262, 45.392477 ], [ -106.570083, 45.392504 ], [ -106.569966, 45.39257 ], [ -106.569889, 45.392707 ], [ -106.569709, 45.392762 ], [ -106.568837, 45.392559 ], [ -106.56823, 45.392257 ], [ -106.567973, 45.392 ], [ -106.567957, 45.391901 ], [ -106.568152, 45.391692 ], [ -106.568347, 45.391627 ], [ -106.568658, 45.391572 ], [ -106.56897, 45.391654 ], [ -106.569242, 45.391654 ], [ -106.569382, 45.391473 ], [ -106.569297, 45.391242 ], [ -106.569164, 45.391116 ], [ -106.568946, 45.391078 ], [ -106.568424, 45.39127 ], [ -106.567895, 45.391149 ], [ -106.567623, 45.391149 ], [ -106.567584, 45.391105 ], [ -106.567288, 45.391149 ], [ -106.567233, 45.391215 ], [ -106.56735, 45.391506 ], [ -106.567311, 45.391588 ], [ -106.566665, 45.391682 ], [ -106.566455, 45.391956 ], [ -106.566237, 45.392055 ], [ -106.565871, 45.392208 ], [ -106.565614, 45.392236 ], [ -106.565442, 45.392219 ], [ -106.565014, 45.392071 ], [ -106.564397, 45.392075 ], [ -106.564204, 45.392077 ], [ -106.564609, 45.392433 ], [ -106.564531, 45.392505 ], [ -106.562585, 45.392461 ], [ -106.562522, 45.392285 ], [ -106.562639, 45.391994 ], [ -106.562374, 45.391951 ], [ -106.562102, 45.392005 ], [ -106.561829, 45.391951 ], [ -106.561245, 45.392071 ], [ -106.561152, 45.392159 ], [ -106.561463, 45.392373 ], [ -106.561385, 45.392472 ], [ -106.560615, 45.392549 ], [ -106.560568, 45.392225 ], [ -106.560412, 45.392077 ], [ -106.560272, 45.39206 ], [ -106.560155, 45.392159 ], [ -106.560155, 45.392296 ], [ -106.560077, 45.392389 ], [ -106.559844, 45.392444 ], [ -106.559548, 45.392625 ], [ -106.558964, 45.392845 ], [ -106.558835, 45.392861 ], [ -106.558753, 45.392872 ], [ -106.558224, 45.392752 ], [ -106.557897, 45.39279 ], [ -106.557757, 45.392697 ], [ -106.557663, 45.392697 ], [ -106.556799, 45.39279 ], [ -106.556083, 45.392795 ], [ -106.555771, 45.392905 ], [ -106.555421, 45.392971 ], [ -106.555031, 45.39296 ], [ -106.554852, 45.392834 ], [ -106.554751, 45.392532 ], [ -106.554634, 45.392384 ], [ -106.55444, 45.392258 ], [ -106.554113, 45.392219 ], [ -106.5537, 45.392236 ], [ -106.55356, 45.392164 ], [ -106.553599, 45.391945 ], [ -106.553544, 45.39189 ], [ -106.553248, 45.391918 ], [ -106.55282, 45.39178 ], [ -106.552625, 45.391934 ], [ -106.55247, 45.392274 ], [ -106.552236, 45.392411 ], [ -106.551434, 45.392499 ], [ -106.5512, 45.392581 ], [ -106.55099, 45.392565 ], [ -106.55064, 45.392455 ], [ -106.550227, 45.392428 ], [ -106.549861, 45.392729 ], [ -106.549472, 45.392746 ], [ -106.549293, 45.392608 ], [ -106.549191, 45.392334 ], [ -106.54902, 45.392186 ], [ -106.548358, 45.391978 ], [ -106.548078, 45.391665 ], [ -106.547634, 45.391621 ], [ -106.547494, 45.391528 ], [ -106.547691, 45.391373 ], [ -106.548195, 45.391253 ], [ -106.548296, 45.391154 ], [ -106.548219, 45.391072 ], [ -106.547634, 45.390951 ], [ -106.547378, 45.390853 ], [ -106.547354, 45.39065 ], [ -106.547144, 45.39032 ], [ -106.547199, 45.390156 ], [ -106.546872, 45.389799 ], [ -106.546786, 45.389426 ], [ -106.546631, 45.389371 ], [ -106.546514, 45.389388 ], [ -106.546319, 45.389596 ], [ -106.546109, 45.389596 ], [ -106.545914, 45.389525 ], [ -106.545776, 45.38942 ], [ -106.545765, 45.389272 ], [ -106.545734, 45.38883 ], [ -106.545724, 45.388683 ], [ -106.545598, 45.384351 ], [ -106.550181, 45.384385 ], [ -106.550463, 45.384387 ], [ -106.559347, 45.384454 ], [ -106.566362, 45.384506 ], [ -106.566419, 45.38074 ], [ -106.57435, 45.380759 ], [ -106.58355, 45.380783 ], [ -106.589335, 45.380727 ], [ -106.589966, 45.380727 ], [ -106.591691, 45.380726 ], [ -106.591687, 45.380972 ], [ -106.591681, 45.381373 ], [ -106.5916, 45.386507 ], [ -106.591577, 45.38799 ], [ -106.596515, 45.387899 ], [ -106.604489, 45.387752 ], [ -106.604785, 45.387747 ], [ -106.607184, 45.387703 ], [ -106.607146, 45.390236 ] ] ], [ [ [ -106.693601, 45.356723 ], [ -106.693601, 45.358886 ], [ -106.692021, 45.358886 ], [ -106.689456, 45.358886 ], [ -106.688828, 45.358886 ], [ -106.688489, 45.358886 ], [ -106.688513, 45.360427 ], [ -106.688524, 45.361054 ], [ -106.688397, 45.36168 ], [ -106.688395, 45.361694 ], [ -106.6885, 45.361888 ], [ -106.688557, 45.361992 ], [ -106.688557, 45.362837 ], [ -106.688505, 45.363117 ], [ -106.688425, 45.363546 ], [ -106.688362, 45.363889 ], [ -106.688509, 45.36414 ], [ -106.688517, 45.366491 ], [ -106.688544, 45.373547 ], [ -106.688553, 45.375899 ], [ -106.688548, 45.37682 ], [ -106.688536, 45.379587 ], [ -106.688532, 45.380509 ], [ -106.688432, 45.38051 ], [ -106.688133, 45.380516 ], [ -106.688034, 45.380518 ], [ -106.681618, 45.380517 ], [ -106.678929, 45.380516 ], [ -106.668333, 45.380514 ], [ -106.668345, 45.390514 ], [ -106.66835, 45.395101 ], [ -106.666218, 45.395109 ], [ -106.664191, 45.395118 ], [ -106.657114, 45.395147 ], [ -106.649825, 45.39511 ], [ -106.647592, 45.395099 ], [ -106.64759, 45.385904 ], [ -106.647589, 45.382291 ], [ -106.647589, 45.380892 ], [ -106.646535, 45.380893 ], [ -106.642164, 45.380888 ], [ -106.634876, 45.380882 ], [ -106.631664, 45.380882 ], [ -106.62678, 45.380882 ], [ -106.626805, 45.37613 ], [ -106.626822, 45.372919 ], [ -106.626823, 45.367357 ], [ -106.626824, 45.366299 ], [ -106.638722, 45.366296 ], [ -106.642451, 45.366294 ], [ -106.647273, 45.366293 ], [ -106.647307, 45.365553 ], [ -106.647299, 45.362518 ], [ -106.647282, 45.355445 ], [ -106.647281, 45.354904 ], [ -106.647277, 45.353414 ], [ -106.647273, 45.351703 ], [ -106.648596, 45.351701 ], [ -106.648634, 45.351701 ], [ -106.648747, 45.351702 ], [ -106.648786, 45.351703 ], [ -106.656468, 45.351703 ], [ -106.668149, 45.351703 ], [ -106.668149, 45.354563 ], [ -106.66815, 45.358811 ], [ -106.672407, 45.358811 ], [ -106.673262, 45.358811 ], [ -106.673263, 45.355219 ], [ -106.676499, 45.35522 ], [ -106.678916, 45.355219 ], [ -106.682697, 45.355219 ], [ -106.686169, 45.355219 ], [ -106.688587, 45.355219 ], [ -106.691152, 45.355219 ], [ -106.693601, 45.355219 ], [ -106.693601, 45.356723 ] ] ], [ [ [ -106.798057, 45.122019 ], [ -106.792874, 45.121979 ], [ -106.792889, 45.119164 ], [ -106.78606, 45.119219 ], [ -106.785329, 45.119202 ], [ -106.78381, 45.119167 ], [ -106.783783, 45.119166 ], [ -106.782799, 45.119141 ], [ -106.782121, 45.119124 ], [ -106.78197, 45.116857 ], [ -106.781905, 45.115876 ], [ -106.781903, 45.115786 ], [ -106.78189, 45.115245 ], [ -106.781887, 45.115083 ], [ -106.782533, 45.115094 ], [ -106.783614, 45.115113 ], [ -106.784245, 45.115125 ], [ -106.795196, 45.115107 ], [ -106.798062, 45.115102 ], [ -106.798057, 45.122019 ] ] ], [ [ [ -106.818171, 45.099824 ], [ -106.818171, 45.101922 ], [ -106.81816, 45.102068 ], [ -106.818131, 45.102509 ], [ -106.818122, 45.102656 ], [ -106.81812, 45.1035 ], [ -106.816263, 45.103512 ], [ -106.814674, 45.103522 ], [ -106.813119, 45.103532 ], [ -106.813086, 45.107299 ], [ -106.811045, 45.107301 ], [ -106.811078, 45.106249 ], [ -106.807928, 45.106202 ], [ -106.807942, 45.107304 ], [ -106.802848, 45.107251 ], [ -106.792662, 45.107147 ], [ -106.792646, 45.107068 ], [ -106.792635, 45.106156 ], [ -106.792614, 45.104492 ], [ -106.795957, 45.104475 ], [ -106.796943, 45.103275 ], [ -106.797499, 45.102597 ], [ -106.797473, 45.101133 ], [ -106.797448, 45.099743 ], [ -106.797456, 45.097986 ], [ -106.79995, 45.098991 ], [ -106.80115, 45.099412 ], [ -106.801316, 45.099469 ], [ -106.801833, 45.099595 ], [ -106.8022, 45.099604 ], [ -106.802255, 45.099675 ], [ -106.802565, 45.09967 ], [ -106.80251, 45.09936 ], [ -106.805588, 45.099506 ], [ -106.805784, 45.099624 ], [ -106.806062, 45.099621 ], [ -106.806579, 45.099623 ], [ -106.806421, 45.099236 ], [ -106.806012, 45.098433 ], [ -106.805019, 45.097551 ], [ -106.804108, 45.097308 ], [ -106.803873, 45.097251 ], [ -106.803006, 45.096169 ], [ -106.803928, 45.096167 ], [ -106.807785, 45.096145 ], [ -106.813499, 45.096101 ], [ -106.813531, 45.096205 ], [ -106.813659, 45.096512 ], [ -106.813809, 45.096815 ], [ -106.813981, 45.097112 ], [ -106.814175, 45.097402 ], [ -106.814391, 45.097684 ], [ -106.814627, 45.097958 ], [ -106.814795, 45.098135 ], [ -106.815063, 45.098394 ], [ -106.815351, 45.098642 ], [ -106.815656, 45.098879 ], [ -106.81609, 45.099177 ], [ -106.816433, 45.099386 ], [ -106.81696, 45.099649 ], [ -106.818171, 45.099651 ], [ -106.818171, 45.099824 ] ] ] ] } },
{ "type": "Feature", "properties": { "AIANNHCE": "3680", "AIANNHNS": "00649741", "GEOID": "3680T", "GEOIDFQ": "2540000US3680T", "NAME": "Shakopee Mdewakanton Sioux", "NAMELSAD": "Shakopee Mdewakanton Sioux Off-Reservation Trust Land", "LSAD": "OT", "CLASSFP": "D5", "COMPTYP": "T", "AIANNHR": "F", "MTFCC": "G2102", "FUNCSTAT": "A", "ALAND": 21110991, "AWATER": 23965, "INTPTLAT": "+44.7549164", "INTPTLON": "-093.4276908" }, "geometry": { "type": "MultiPolygon", "coordinates": [ [ [ [ -93.439995, 44.731405 ], [ -93.439821, 44.731409 ], [ -93.439534, 44.731416 ], [ -93.439532, 44.731395 ], [ -93.439528, 44.731331 ], [ -93.439527, 44.731311 ], [ -93.439514, 44.731134 ], [ -93.439478, 44.730603 ], [ -93.439466, 44.730427 ], [ -93.439464, 44.730399 ], [ -93.439461, 44.730361 ], [ -93.439676, 44.730361 ], [ -93.439982, 44.730361 ], [ -93.439973, 44.730404 ], [ -93.439974, 44.730427 ], [ -93.43998, 44.730714 ], [ -93.439995, 44.731405 ] ] ], [ [ [ -93.458715, 44.750141 ], [ -93.449856, 44.750303 ], [ -93.449602, 44.750307 ], [ -93.449613, 44.750254 ], [ -93.449619, 44.750209 ], [ -93.449632, 44.750127 ], [ -93.449687, 44.750127 ], [ -93.452063, 44.750086 ], [ -93.452141, 44.747827 ], [ -93.454256, 44.747708 ], [ -93.454403, 44.747701 ], [ -93.45455, 44.747698 ], [ -93.454697, 44.747699 ], [ -93.454844, 44.747704 ], [ -93.454991, 44.747712 ], [ -93.455137, 44.747724 ], [ -93.455283, 44.747739 ], [ -93.455427, 44.747758 ], [ -93.455571, 44.747781 ], [ -93.455713, 44.747807 ], [ -93.455994, 44.74787 ], [ -93.456132, 44.747907 ], [ -93.456268, 44.747947 ], [ -93.456402, 44.74799 ], [ -93.456534, 44.748037 ], [ -93.456663, 44.748087 ], [ -93.45679, 44.74814 ], [ -93.456914, 44.748196 ], [ -93.457035, 44.748255 ], [ -93.457154, 44.748317 ], [ -93.457269, 44.748383 ], [ -93.457381, 44.748451 ], [ -93.45749, 44.748521 ], [ -93.457595, 44.748595 ], [ -93.457696, 44.748671 ], [ -93.457794, 44.748749 ], [ -93.457888, 44.74883 ], [ -93.457977, 44.748913 ], [ -93.458063, 44.748998 ], [ -93.458144, 44.749085 ], [ -93.458221, 44.749175 ], [ -93.458294, 44.749266 ], [ -93.458362, 44.749359 ], [ -93.458426, 44.749453 ], [ -93.458485, 44.749549 ], [ -93.458539, 44.749647 ], [ -93.458588, 44.749746 ], [ -93.458633, 44.749846 ], [ -93.458672, 44.749947 ], [ -93.458707, 44.750049 ], [ -93.458734, 44.750141 ], [ -93.458715, 44.750141 ] ] ], [ [ [ -93.463684, 44.775649 ], [ -93.460212, 44.775632 ], [ -93.459395, 44.775634 ], [ -93.459415, 44.774714 ], [ -93.46067, 44.775001 ], [ -93.463684, 44.775649 ] ] ], [ [ [ -93.464749, 44.719508 ], [ -93.464734, 44.722139 ], [ -93.464721, 44.722411 ], [ -93.464697, 44.725045 ], [ -93.464582, 44.725042 ], [ -93.46384, 44.72502 ], [ -93.461616, 44.724956 ], [ -93.460875, 44.724935 ], [ -93.459895, 44.724906 ], [ -93.459212, 44.724886 ], [ -93.458981, 44.72488 ], [ -93.458768, 44.724876 ], [ -93.456955, 44.724848 ], [ -93.456619, 44.724843 ], [ -93.456646, 44.722738 ], [ -93.456666, 44.721197 ], [ -93.45675, 44.721204 ], [ -93.458483, 44.721216 ], [ -93.45968, 44.721226 ], [ -93.459703, 44.720168 ], [ -93.459735, 44.719427 ], [ -93.459766, 44.717558 ], [ -93.460242, 44.717553 ], [ -93.464772, 44.717537 ], [ -93.464749, 44.719508 ] ] ], [ [ [ -93.469576, 44.77571 ], [ -93.469576, 44.77577 ], [ -93.469506, 44.775769 ], [ -93.469296, 44.775767 ], [ -93.469226, 44.775767 ], [ -93.468315, 44.775759 ], [ -93.466688, 44.775747 ], [ -93.465746, 44.775724 ], [ -93.465585, 44.775711 ], [ -93.465191, 44.77568 ], [ -93.464684, 44.775593 ], [ -93.46477, 44.775283 ], [ -93.464815, 44.775187 ], [ -93.46487, 44.77512 ], [ -93.464949, 44.775041 ], [ -93.465054, 44.774967 ], [ -93.465146, 44.774916 ], [ -93.465315, 44.774857 ], [ -93.465448, 44.774826 ], [ -93.465579, 44.774805 ], [ -93.465712, 44.7748 ], [ -93.467494, 44.774808 ], [ -93.467618, 44.774803 ], [ -93.467767, 44.774786 ], [ -93.467907, 44.774757 ], [ -93.468031, 44.774725 ], [ -93.468141, 44.774682 ], [ -93.468253, 44.774629 ], [ -93.468349, 44.774573 ], [ -93.468429, 44.774511 ], [ -93.468502, 44.774437 ], [ -93.468579, 44.774343 ], [ -93.468675, 44.774241 ], [ -93.46879, 44.77415 ], [ -93.468871, 44.774108 ], [ -93.468973, 44.774069 ], [ -93.46909, 44.774038 ], [ -93.469215, 44.774022 ], [ -93.4696, 44.774017 ], [ -93.469576, 44.77571 ] ] ], [ [ [ -93.469682, 44.768131 ], [ -93.469627, 44.771949 ], [ -93.469246, 44.771952 ], [ -93.464544, 44.771937 ], [ -93.46453, 44.77227 ], [ -93.464505, 44.775353 ], [ -93.463462, 44.775178 ], [ -93.462426, 44.774949 ], [ -93.461415, 44.774669 ], [ -93.460434, 44.77434 ], [ -93.459488, 44.773962 ], [ -93.459029, 44.773756 ], [ -93.457437, 44.773013 ], [ -93.456595, 44.772647 ], [ -93.455721, 44.772321 ], [ -93.454809, 44.772034 ], [ -93.454358, 44.77191 ], [ -93.449361, 44.770605 ], [ -93.449367, 44.771136 ], [ -93.449422, 44.774299 ], [ -93.449428, 44.774575 ], [ -93.448399, 44.774213 ], [ -93.447469, 44.773635 ], [ -93.447297, 44.773506 ], [ -93.446685, 44.772954 ], [ -93.446366, 44.772763 ], [ -93.446339, 44.772746 ], [ -93.445847, 44.772652 ], [ -93.445342, 44.772502 ], [ -93.444753, 44.77239 ], [ -93.444458, 44.772426 ], [ -93.444459, 44.772259 ], [ -93.443473, 44.772136 ], [ -93.443039, 44.772002 ], [ -93.442426, 44.771897 ], [ -93.441801, 44.771794 ], [ -93.441512, 44.771625 ], [ -93.441421, 44.771518 ], [ -93.441246, 44.771348 ], [ -93.440685, 44.771184 ], [ -93.440526, 44.771156 ], [ -93.440258, 44.771107 ], [ -93.439999, 44.77106 ], [ -93.43987, 44.77101 ], [ -93.439816, 44.770954 ], [ -93.439806, 44.770905 ], [ -93.439762, 44.770886 ], [ -93.439522, 44.770862 ], [ -93.439525, 44.770625 ], [ -93.439511, 44.768543 ], [ -93.436036, 44.76763 ], [ -93.435802, 44.767569 ], [ -93.4354, 44.767463 ], [ -93.433772, 44.767121 ], [ -93.43371, 44.767108 ], [ -93.433722, 44.764689 ], [ -93.433722, 44.764665 ], [ -93.432004, 44.764602 ], [ -93.431482, 44.764706 ], [ -93.431242, 44.764429 ], [ -93.430584, 44.764532 ], [ -93.429386, 44.764555 ], [ -93.429384, 44.763953 ], [ -93.429377, 44.762155 ], [ -93.429374, 44.761336 ], [ -93.429374, 44.761247 ], [ -93.429376, 44.76116 ], [ -93.429381, 44.760968 ], [ -93.429399, 44.760392 ], [ -93.429405, 44.760201 ], [ -93.429417, 44.759768 ], [ -93.429435, 44.759188 ], [ -93.429442, 44.758915 ], [ -93.42923, 44.758947 ], [ -93.428485, 44.759057 ], [ -93.428276, 44.758177 ], [ -93.427096, 44.758269 ], [ -93.426878, 44.758232 ], [ -93.426637, 44.758191 ], [ -93.426514, 44.757918 ], [ -93.426031, 44.756841 ], [ -93.425871, 44.756483 ], [ -93.426053, 44.756444 ], [ -93.426442, 44.756363 ], [ -93.426597, 44.756315 ], [ -93.426768, 44.756239 ], [ -93.426434, 44.755996 ], [ -93.426353, 44.755927 ], [ -93.426295, 44.755854 ], [ -93.42626, 44.755772 ], [ -93.426049, 44.755756 ], [ -93.421992, 44.755725 ], [ -93.420843, 44.755716 ], [ -93.419284, 44.755704 ], [ -93.419258, 44.757091 ], [ -93.419241, 44.757059 ], [ -93.419229, 44.757045 ], [ -93.419215, 44.757031 ], [ -93.419199, 44.757018 ], [ -93.419181, 44.757007 ], [ -93.419162, 44.756997 ], [ -93.419148, 44.756991 ], [ -93.419127, 44.756983 ], [ -93.419112, 44.756979 ], [ -93.419089, 44.756974 ], [ -93.419066, 44.756971 ], [ -93.419034, 44.75697 ], [ -93.419002, 44.756971 ], [ -93.418971, 44.756976 ], [ -93.418941, 44.756984 ], [ -93.418914, 44.756994 ], [ -93.418888, 44.757007 ], [ -93.418865, 44.757023 ], [ -93.418846, 44.75704 ], [ -93.41883, 44.757059 ], [ -93.418817, 44.75708 ], [ -93.418809, 44.757102 ], [ -93.418805, 44.757125 ], [ -93.418805, 44.757148 ], [ -93.41881, 44.757171 ], [ -93.41882, 44.757193 ], [ -93.418833, 44.757213 ], [ -93.418851, 44.757233 ], [ -93.418872, 44.75725 ], [ -93.418903, 44.757269 ], [ -93.418937, 44.757283 ], [ -93.418975, 44.757293 ], [ -93.41899, 44.757297 ], [ -93.419006, 44.757305 ], [ -93.419017, 44.757313 ], [ -93.419025, 44.757323 ], [ -93.41903, 44.757333 ], [ -93.419032, 44.757347 ], [ -93.419029, 44.757513 ], [ -93.419177, 44.757514 ], [ -93.419253, 44.757514 ], [ -93.419249, 44.757937 ], [ -93.419247, 44.758226 ], [ -93.419243, 44.758601 ], [ -93.419238, 44.759143 ], [ -93.419003, 44.759142 ], [ -93.416692, 44.759125 ], [ -93.416704, 44.758375 ], [ -93.415331, 44.757487 ], [ -93.415127, 44.757485 ], [ -93.414176, 44.757478 ], [ -93.411886, 44.757462 ], [ -93.411895, 44.756639 ], [ -93.409302, 44.75662 ], [ -93.409147, 44.756619 ], [ -93.409146, 44.756343 ], [ -93.409145, 44.756177 ], [ -93.409029, 44.755906 ], [ -93.409041, 44.755485 ], [ -93.409079, 44.754221 ], [ -93.409091, 44.753826 ], [ -93.419319, 44.753894 ], [ -93.426585, 44.753948 ], [ -93.428984, 44.753958 ], [ -93.429212, 44.753959 ], [ -93.429424, 44.75396 ], [ -93.43018, 44.753965 ], [ -93.435762, 44.754002 ], [ -93.439235, 44.754019 ], [ -93.439468, 44.754023 ], [ -93.439481, 44.754023 ], [ -93.439672, 44.754027 ], [ -93.440789, 44.75401 ], [ -93.440812, 44.752365 ], [ -93.43994, 44.752382 ], [ -93.439695, 44.752387 ], [ -93.439725, 44.750436 ], [ -93.439648, 44.750433 ], [ -93.43933, 44.750431 ], [ -93.439038, 44.750417 ], [ -93.438763, 44.750404 ], [ -93.43884, 44.750122 ], [ -93.439016, 44.7495 ], [ -93.439465, 44.747608 ], [ -93.439499, 44.747373 ], [ -93.439505, 44.747086 ], [ -93.439488, 44.746982 ], [ -93.439378, 44.746795 ], [ -93.44044, 44.746814 ], [ -93.441656, 44.746836 ], [ -93.441654, 44.746946 ], [ -93.441607, 44.750123 ], [ -93.441604, 44.750321 ], [ -93.441604, 44.750375 ], [ -93.445257, 44.750323 ], [ -93.4455, 44.750358 ], [ -93.445822, 44.750353 ], [ -93.448636, 44.750318 ], [ -93.449212, 44.750311 ], [ -93.449474, 44.750308 ], [ -93.449602, 44.750307 ], [ -93.449596, 44.7506 ], [ -93.449593, 44.750832 ], [ -93.449579, 44.752164 ], [ -93.449575, 44.752608 ], [ -93.449569, 44.752757 ], [ -93.449553, 44.753206 ], [ -93.449548, 44.753356 ], [ -93.449543, 44.753417 ], [ -93.44953, 44.7536 ], [ -93.449526, 44.753662 ], [ -93.449522, 44.753888 ], [ -93.44952, 44.753932 ], [ -93.449489, 44.755244 ], [ -93.44945, 44.756859 ], [ -93.449407, 44.75749 ], [ -93.449871, 44.757484 ], [ -93.451082, 44.757468 ], [ -93.452622, 44.757447 ], [ -93.454389, 44.757423 ], [ -93.454513, 44.757421 ], [ -93.45609, 44.7574 ], [ -93.457245, 44.757384 ], [ -93.458649, 44.757365 ], [ -93.4595, 44.757356 ], [ -93.4595, 44.75676 ], [ -93.459503, 44.756255 ], [ -93.459508, 44.755548 ], [ -93.45951, 44.755347 ], [ -93.459516, 44.754431 ], [ -93.45952, 44.753745 ], [ -93.461109, 44.753749 ], [ -93.464101, 44.753757 ], [ -93.464096, 44.754661 ], [ -93.469661, 44.754693 ], [ -93.469658, 44.755069 ], [ -93.469642, 44.756691 ], [ -93.469614, 44.759547 ], [ -93.4696, 44.76104 ], [ -93.464612, 44.76102 ], [ -93.464609, 44.761347 ], [ -93.464602, 44.764621 ], [ -93.467399, 44.764622 ], [ -93.469641, 44.764616 ], [ -93.469645, 44.764954 ], [ -93.469682, 44.768131 ] ], [ [ -93.439539, 44.758563 ], [ -93.43951, 44.758569 ], [ -93.439451, 44.758581 ], [ -93.439387, 44.758594 ], [ -93.43912, 44.758647 ], [ -93.437013, 44.759074 ], [ -93.436988, 44.759079 ], [ -93.436978, 44.759434 ], [ -93.436968, 44.759763 ], [ -93.437304, 44.759762 ], [ -93.437304, 44.76016 ], [ -93.438309, 44.76016 ], [ -93.438493, 44.76027 ], [ -93.438629, 44.76083 ], [ -93.438509, 44.761217 ], [ -93.438906, 44.761216 ], [ -93.439122, 44.761215 ], [ -93.439462, 44.761217 ], [ -93.439507, 44.759673 ], [ -93.439537, 44.758616 ], [ -93.439539, 44.758563 ] ] ], [ [ [ -93.47476, 44.746372 ], [ -93.474749, 44.746674 ], [ -93.472328, 44.746681 ], [ -93.471733, 44.746682 ], [ -93.469717, 44.746688 ], [ -93.469721, 44.745423 ], [ -93.469335, 44.745432 ], [ -93.468857, 44.74543 ], [ -93.468512, 44.745633 ], [ -93.468404, 44.745816 ], [ -93.468404, 44.745852 ], [ -93.468398, 44.746675 ], [ -93.467555, 44.746668 ], [ -93.463423, 44.746632 ], [ -93.463104, 44.74663 ], [ -93.463167, 44.746151 ], [ -93.463235, 44.745967 ], [ -93.463289, 44.745927 ], [ -93.463328, 44.745898 ], [ -93.463481, 44.745818 ], [ -93.463578, 44.745777 ], [ -93.463695, 44.745747 ], [ -93.463836, 44.745743 ], [ -93.464109, 44.745756 ], [ -93.46436, 44.745726 ], [ -93.464598, 44.745677 ], [ -93.464864, 44.745637 ], [ -93.465143, 44.745607 ], [ -93.465456, 44.7456 ], [ -93.466968, 44.745623 ], [ -93.467336, 44.745622 ], [ -93.467553, 44.745616 ], [ -93.467696, 44.745582 ], [ -93.467873, 44.745523 ], [ -93.468036, 44.74543 ], [ -93.468164, 44.745332 ], [ -93.468238, 44.745201 ], [ -93.468294, 44.745037 ], [ -93.468307, 44.744871 ], [ -93.468313, 44.744661 ], [ -93.468323, 44.74452 ], [ -93.468347, 44.744411 ], [ -93.468394, 44.744289 ], [ -93.468455, 44.744173 ], [ -93.468556, 44.744048 ], [ -93.468719, 44.743893 ], [ -93.468832, 44.743857 ], [ -93.468983, 44.74382 ], [ -93.469178, 44.743793 ], [ -93.469379, 44.743774 ], [ -93.469727, 44.743772 ], [ -93.46973, 44.74301 ], [ -93.46973, 44.742941 ], [ -93.470012, 44.742946 ], [ -93.470832, 44.742946 ], [ -93.474811, 44.742945 ], [ -93.47476, 44.746372 ] ] ], [ [ [ -93.500021, 44.74424 ], [ -93.499989, 44.745061 ], [ -93.499978, 44.745331 ], [ -93.499956, 44.745886 ], [ -93.499933, 44.746476 ], [ -93.499928, 44.746601 ], [ -93.499931, 44.746627 ], [ -93.499031, 44.746614 ], [ -93.498305, 44.746604 ], [ -93.497482, 44.746592 ], [ -93.496133, 44.746572 ], [ -93.492086, 44.746512 ], [ -93.490738, 44.746493 ], [ -93.490575, 44.74649 ], [ -93.490087, 44.746495 ], [ -93.489925, 44.746498 ], [ -93.488844, 44.746512 ], [ -93.4883, 44.74652 ], [ -93.485877, 44.746622 ], [ -93.485603, 44.74663 ], [ -93.485048, 44.746648 ], [ -93.484523, 44.746649 ], [ -93.483578, 44.746651 ], [ -93.480744, 44.746659 ], [ -93.479928, 44.746662 ], [ -93.479909, 44.746662 ], [ -93.4798, 44.746662 ], [ -93.479679, 44.746662 ], [ -93.47897, 44.746664 ], [ -93.477783, 44.746667 ], [ -93.476683, 44.746669 ], [ -93.47673, 44.742953 ], [ -93.474811, 44.742945 ], [ -93.474837, 44.741128 ], [ -93.474846, 44.740523 ], [ -93.474854, 44.739981 ], [ -93.47486, 44.739572 ], [ -93.474862, 44.739446 ], [ -93.474864, 44.739311 ], [ -93.474868, 44.737848 ], [ -93.47488, 44.737634 ], [ -93.474878, 44.735865 ], [ -93.474878, 44.735829 ], [ -93.474876, 44.73571 ], [ -93.473819, 44.735711 ], [ -93.470713, 44.735708 ], [ -93.470205, 44.735709 ], [ -93.469971, 44.735709 ], [ -93.469908, 44.735709 ], [ -93.469737, 44.735708 ], [ -93.469737, 44.73566 ], [ -93.469728, 44.734891 ], [ -93.469725, 44.734491 ], [ -93.469718, 44.733086 ], [ -93.469717, 44.733002 ], [ -93.469717, 44.732824 ], [ -93.469716, 44.732269 ], [ -93.469467, 44.732262 ], [ -93.469453, 44.733002 ], [ -93.468679, 44.733008 ], [ -93.468495, 44.73301 ], [ -93.468502, 44.732235 ], [ -93.466178, 44.732171 ], [ -93.465687, 44.732158 ], [ -93.465294, 44.732141 ], [ -93.465047, 44.732007 ], [ -93.465036, 44.731999 ], [ -93.464882, 44.731888 ], [ -93.464786, 44.731737 ], [ -93.464746, 44.731608 ], [ -93.464736, 44.731396 ], [ -93.464723, 44.73123 ], [ -93.464701, 44.730937 ], [ -93.464703, 44.730684 ], [ -93.464709, 44.729926 ], [ -93.464712, 44.729674 ], [ -93.464713, 44.729568 ], [ -93.464715, 44.72925 ], [ -93.464717, 44.729145 ], [ -93.464716, 44.728959 ], [ -93.464714, 44.728627 ], [ -93.464713, 44.728401 ], [ -93.464712, 44.728216 ], [ -93.464709, 44.727572 ], [ -93.464709, 44.727474 ], [ -93.464697, 44.725045 ], [ -93.464849, 44.725041 ], [ -93.465653, 44.725023 ], [ -93.465922, 44.725018 ], [ -93.466422, 44.725015 ], [ -93.466807, 44.725014 ], [ -93.46724, 44.72499 ], [ -93.467226, 44.724848 ], [ -93.467258, 44.72119 ], [ -93.46757, 44.721189 ], [ -93.470056, 44.721178 ], [ -93.470512, 44.721169 ], [ -93.474913, 44.72119 ], [ -93.474934, 44.719101 ], [ -93.474949, 44.717604 ], [ -93.474952, 44.717462 ], [ -93.474975, 44.716332 ], [ -93.475023, 44.714013 ], [ -93.478422, 44.714035 ], [ -93.4789, 44.714038 ], [ -93.480883, 44.71405 ], [ -93.485152, 44.714076 ], [ -93.48515, 44.714579 ], [ -93.485144, 44.717146 ], [ -93.485095, 44.717249 ], [ -93.485022, 44.717337 ], [ -93.48487, 44.717436 ], [ -93.48459, 44.717548 ], [ -93.484446, 44.717606 ], [ -93.484216, 44.717698 ], [ -93.483992, 44.717779 ], [ -93.483733, 44.717946 ], [ -93.483559, 44.718061 ], [ -93.483497, 44.718201 ], [ -93.483443, 44.7184 ], [ -93.48344, 44.718499 ], [ -93.483495, 44.718611 ], [ -93.483516, 44.718685 ], [ -93.483513, 44.71889 ], [ -93.483472, 44.719018 ], [ -93.482964, 44.719419 ], [ -93.482739, 44.719649 ], [ -93.48253, 44.71993 ], [ -93.482388, 44.720072 ], [ -93.482254, 44.720188 ], [ -93.482227, 44.720353 ], [ -93.482042, 44.720706 ], [ -93.481984, 44.720827 ], [ -93.481986, 44.721004 ], [ -93.481967, 44.721183 ], [ -93.481923, 44.721365 ], [ -93.481796, 44.721569 ], [ -93.481676, 44.721708 ], [ -93.481519, 44.721722 ], [ -93.481236, 44.72173 ], [ -93.481018, 44.721728 ], [ -93.480908, 44.721728 ], [ -93.480854, 44.721782 ], [ -93.480884, 44.721813 ], [ -93.481, 44.721816 ], [ -93.481096, 44.721863 ], [ -93.481234, 44.722008 ], [ -93.481335, 44.722185 ], [ -93.481245, 44.722273 ], [ -93.481089, 44.722323 ], [ -93.480936, 44.722393 ], [ -93.480752, 44.722543 ], [ -93.480715, 44.722641 ], [ -93.480818, 44.723089 ], [ -93.480902, 44.723097 ], [ -93.481022, 44.723006 ], [ -93.481236, 44.723049 ], [ -93.481308, 44.723102 ], [ -93.481396, 44.723094 ], [ -93.481496, 44.723008 ], [ -93.481577, 44.722953 ], [ -93.48173, 44.722928 ], [ -93.481792, 44.722978 ], [ -93.481902, 44.723392 ], [ -93.481885, 44.723458 ], [ -93.481792, 44.723501 ], [ -93.481693, 44.723476 ], [ -93.481619, 44.723518 ], [ -93.481606, 44.723622 ], [ -93.481643, 44.723739 ], [ -93.481687, 44.723849 ], [ -93.481738, 44.7239 ], [ -93.481861, 44.723978 ], [ -93.48204, 44.724048 ], [ -93.482315, 44.72427 ], [ -93.482502, 44.724429 ], [ -93.482628, 44.724494 ], [ -93.48288, 44.724464 ], [ -93.482946, 44.724509 ], [ -93.483101, 44.724512 ], [ -93.483302, 44.724545 ], [ -93.48335, 44.724534 ], [ -93.483408, 44.724372 ], [ -93.483426, 44.724342 ], [ -93.483464, 44.724365 ], [ -93.483476, 44.724453 ], [ -93.483482, 44.724527 ], [ -93.483535, 44.72458 ], [ -93.483661, 44.724624 ], [ -93.483931, 44.724623 ], [ -93.483891, 44.725037 ], [ -93.483997, 44.725088 ], [ -93.483869, 44.725273 ], [ -93.483832, 44.725705 ], [ -93.484126, 44.725911 ], [ -93.484659, 44.726226 ], [ -93.484923, 44.726351 ], [ -93.485181, 44.726457 ], [ -93.485485, 44.72657 ], [ -93.485793, 44.726663 ], [ -93.485888, 44.726688 ], [ -93.485669, 44.726997 ], [ -93.485324, 44.727537 ], [ -93.48525, 44.727714 ], [ -93.485242, 44.727851 ], [ -93.485271, 44.728207 ], [ -93.485277, 44.728278 ], [ -93.48528, 44.728317 ], [ -93.484916, 44.728314 ], [ -93.484889, 44.729419 ], [ -93.486135, 44.729429 ], [ -93.486097, 44.731006 ], [ -93.488672, 44.731027 ], [ -93.488733, 44.728526 ], [ -93.488662, 44.728525 ], [ -93.488702, 44.728345 ], [ -93.490134, 44.728377 ], [ -93.490097, 44.732152 ], [ -93.489968, 44.736019 ], [ -93.489941, 44.736822 ], [ -93.490114, 44.73683 ], [ -93.49029, 44.736861 ], [ -93.490435, 44.736904 ], [ -93.490571, 44.73696 ], [ -93.490695, 44.737029 ], [ -93.4908, 44.737095 ], [ -93.490897, 44.737149 ], [ -93.491031, 44.737202 ], [ -93.491176, 44.737237 ], [ -93.491358, 44.737256 ], [ -93.491389, 44.737264 ], [ -93.491386, 44.73734 ], [ -93.491381, 44.737437 ], [ -93.491264, 44.737432 ], [ -93.491151, 44.737419 ], [ -93.491037, 44.737397 ], [ -93.490925, 44.737366 ], [ -93.490822, 44.737329 ], [ -93.490722, 44.737283 ], [ -93.490631, 44.73723 ], [ -93.490492, 44.737144 ], [ -93.49036, 44.73708 ], [ -93.490211, 44.737034 ], [ -93.49008, 44.737009 ], [ -93.489935, 44.736999 ], [ -93.489856, 44.739383 ], [ -93.491366, 44.739393 ], [ -93.496029, 44.739423 ], [ -93.499386, 44.739442 ], [ -93.499569, 44.739443 ], [ -93.499584, 44.739663 ], [ -93.499632, 44.740379 ], [ -93.499747, 44.741731 ], [ -93.499803, 44.742385 ], [ -93.49991, 44.743622 ], [ -93.5, 44.74418 ], [ -93.500021, 44.74424 ] ], [ [ -93.471973, 44.723612 ], [ -93.470055, 44.723624 ], [ -93.467489, 44.723644 ], [ -93.467486, 44.724976 ], [ -93.467922, 44.724953 ], [ -93.468422, 44.724926 ], [ -93.469496, 44.724511 ], [ -93.470019, 44.724309 ], [ -93.470659, 44.724063 ], [ -93.471702, 44.723821 ], [ -93.472396, 44.72368 ], [ -93.471973, 44.723612 ] ] ], [ [ [ -93.500435, 44.721348 ], [ -93.499041, 44.721333 ], [ -93.498038, 44.721948 ], [ -93.497975, 44.72198 ], [ -93.496959, 44.722475 ], [ -93.497029, 44.722556 ], [ -93.497116, 44.722686 ], [ -93.49719, 44.722871 ], [ -93.49721, 44.723159 ], [ -93.497161, 44.723348 ], [ -93.497107, 44.723459 ], [ -93.498329, 44.723759 ], [ -93.49828, 44.723893 ], [ -93.497881, 44.724353 ], [ -93.497466, 44.724649 ], [ -93.497322, 44.724902 ], [ -93.496158, 44.724787 ], [ -93.495917, 44.724913 ], [ -93.494882, 44.724735 ], [ -93.494392, 44.72548 ], [ -93.49397, 44.725478 ], [ -93.493982, 44.724271 ], [ -93.490231, 44.724272 ], [ -93.490253, 44.721263 ], [ -93.488165, 44.721235 ], [ -93.488157, 44.721136 ], [ -93.488185, 44.720926 ], [ -93.4882, 44.720739 ], [ -93.488267, 44.720604 ], [ -93.488336, 44.720507 ], [ -93.488427, 44.720512 ], [ -93.488712, 44.720499 ], [ -93.488736, 44.72039 ], [ -93.488939, 44.720218 ], [ -93.489095, 44.720105 ], [ -93.48922, 44.719998 ], [ -93.489269, 44.719858 ], [ -93.489329, 44.719723 ], [ -93.489413, 44.719507 ], [ -93.489524, 44.719365 ], [ -93.489539, 44.719243 ], [ -93.489623, 44.719205 ], [ -93.48968, 44.719125 ], [ -93.489799, 44.719005 ], [ -93.489814, 44.718766 ], [ -93.489806, 44.718689 ], [ -93.489917, 44.71862 ], [ -93.489944, 44.718566 ], [ -93.489983, 44.718429 ], [ -93.490041, 44.718273 ], [ -93.490053, 44.718059 ], [ -93.490047, 44.717916 ], [ -93.49005, 44.717664 ], [ -93.49028, 44.717662 ], [ -93.492618, 44.717681 ], [ -93.495351, 44.717703 ], [ -93.495332, 44.71949 ], [ -93.496678, 44.719506 ], [ -93.496688, 44.717715 ], [ -93.499633, 44.71774 ], [ -93.500464, 44.717747 ], [ -93.500435, 44.721348 ] ] ], [ [ [ -103.825126, 44.068066 ], [ -103.802512, 44.067945 ], [ -103.802345, 44.067944 ], [ -103.799514, 44.068016 ], [ -103.79484, 44.067995 ], [ -103.794845, 44.070113 ], [ -103.794846, 44.070379 ], [ -103.794856, 44.075241 ], [ -103.779857, 44.075186 ], [ -103.77987, 44.072966 ], [ -103.779873, 44.072387 ], [ -103.779888, 44.069743 ], [ -103.774899, 44.069724 ], [ -103.774886, 44.071539 ], [ -103.769855, 44.07154 ], [ -103.769873, 44.056981 ], [ -103.774905, 44.056969 ], [ -103.774907, 44.05431 ], [ -103.774903, 44.053324 ], [ -103.788828, 44.0534 ], [ -103.794853, 44.053433 ], [ -103.799971, 44.053487 ], [ -103.79992, 44.053558 ], [ -103.799888, 44.053639 ], [ -103.799866, 44.053823 ], [ -103.799862, 44.054471 ], [ -103.799887, 44.055273 ], [ -103.799892, 44.055723 ], [ -103.799901, 44.055994 ], [ -103.799939, 44.057065 ], [ -103.804909, 44.057128 ], [ -103.804913, 44.053489 ], [ -103.809935, 44.053518 ], [ -103.80993, 44.057152 ], [ -103.815041, 44.057176 ], [ -103.815037, 44.049912 ], [ -103.825071, 44.049884 ], [ -103.825088, 44.055452 ], [ -103.825126, 44.068066 ] ] ] ] } }
]
}
