{
"type": "FeatureCollection",
"name": "danr_exni_uranium_applications",
"features": [
{ "type": "Feature", "properties": { "name": "F3GoldEXNIApp", "type": "Uranium Exploration Permit", "applicant": "EXNI Application NOTE: In compliance with SDCL 45-6C-14, maps and other information submitted with the application that ", "county": "Pennington", "status": "Unknown", "source_pdf": "F3GoldEXNIApp.pdf", "source_url": "https://danr.sd.gov/Environment/MineralsMining/Exploration/docs/F3GoldEXNIApp.pdf", "extraction_method": "ocr", "sections_count": 14, "geometry_source": "plss_section", "approximate_location": false, "centroid_lon": -103.28639, "centroid_lat": 44.08319 }, "geometry": { "type": "MultiPolygon", "coordinates": [ [ [ [ -103.296464837907237, 44.075942028985509 ], [ -103.276317539486698, 44.075942028985509 ], [ -103.276317539486698, 44.090434782608696 ], [ -103.296464837907237, 44.090434782608696 ], [ -103.296464837907237, 44.075942028985509 ] ] ], [ [ [ -103.296464837907237, 44.061449275362314 ], [ -103.276317539486698, 44.061449275362314 ], [ -103.276317539486698, 44.075942028985502 ], [ -103.296464837907237, 44.075942028985502 ], [ -103.296464837907237, 44.061449275362314 ] ] ], [ [ [ -103.296464837907237, 44.046956521739126 ], [ -103.276317539486698, 44.046956521739126 ], [ -103.276317539486698, 44.061449275362314 ], [ -103.296464837907237, 44.061449275362314 ], [ -103.296464837907237, 44.046956521739126 ] ] ], [ [ [ -103.195728345804582, 44.090434782608696 ], [ -103.175581047384043, 44.090434782608696 ], [ -103.175581047384043, 44.104927536231884 ], [ -103.195728345804582, 44.104927536231884 ], [ -103.195728345804582, 44.090434782608696 ] ] ], [ [ [ -103.215875644225122, 44.090434782608696 ], [ -103.195728345804582, 44.090434782608696 ], [ -103.195728345804582, 44.104927536231884 ], [ -103.215875644225122, 44.104927536231884 ], [ -103.215875644225122, 44.090434782608696 ] ] ], [ [ [ -103.195728345804582, 44.075942028985509 ], [ -103.175581047384043, 44.075942028985509 ], [ -103.175581047384043, 44.090434782608696 ], [ -103.195728345804582, 44.090434782608696 ], [ -103.195728345804582, 44.075942028985509 ] ] ], [ [ [ -103.195728345804582, 44.061449275362314 ], [ -103.175581047384043, 44.061449275362314 ], [ -103.175581047384043, 44.075942028985502 ], [ -103.195728345804582, 44.075942028985502 ], [ -103.195728345804582, 44.061449275362314 ] ] ], [ [ [ -103.417348628430432, 44.075942028985509 ], [ -103.397201330009892, 44.075942028985509 ], [ -103.397201330009892, 44.090434782608696 ], [ -103.417348628430432, 44.090434782608696 ], [ -103.417348628430432, 44.075942028985509 ] ] ], [ [ [ -103.417348628430432, 44.061449275362314 ], [ -103.397201330009892, 44.061449275362314 ], [ -103.397201330009892, 44.075942028985502 ], [ -103.417348628430432, 44.075942028985502 ], [ -103.417348628430432, 44.061449275362314 ] ] ], [ [ [ -103.417348628430432, 44.046956521739126 ], [ -103.397201330009892, 44.046956521739126 ], [ -103.397201330009892, 44.061449275362314 ], [ -103.417348628430432, 44.061449275362314 ], [ -103.417348628430432, 44.046956521739126 ] ] ], [ [ [ -103.316612136327777, 44.090434782608696 ], [ -103.296464837907237, 44.090434782608696 ], [ -103.296464837907237, 44.104927536231884 ], [ -103.316612136327777, 44.104927536231884 ], [ -103.316612136327777, 44.090434782608696 ] ] ], [ [ [ -103.336759434748316, 44.090434782608696 ], [ -103.316612136327777, 44.090434782608696 ], [ -103.316612136327777, 44.104927536231884 ], [ -103.336759434748316, 44.104927536231884 ], [ -103.336759434748316, 44.090434782608696 ] ] ], [ [ [ -103.316612136327777, 44.075942028985509 ], [ -103.296464837907237, 44.075942028985509 ], [ -103.296464837907237, 44.090434782608696 ], [ -103.316612136327777, 44.090434782608696 ], [ -103.316612136327777, 44.075942028985509 ] ] ], [ [ [ -103.316612136327777, 44.061449275362314 ], [ -103.296464837907237, 44.061449275362314 ], [ -103.296464837907237, 44.075942028985502 ], [ -103.316612136327777, 44.075942028985502 ], [ -103.316612136327777, 44.061449275362314 ] ] ] ] } },
{ "type": "Feature", "properties": { "name": "120125EXNI453GPTWaterAllianceWitnessExhibits", "type": "Uranium Exploration Permit", "applicant": "December 1, 2025 Witness and Hearing Exhibits Disclosure by Great Plains Tribal Water Alliance", "county": "Fall River", "status": "Unknown", "source_pdf": "120125EXNI453GPTWaterAllianceWitnessExhibits.pdf", "source_url": "https://danr.sd.gov/Environment/MineralsMining/Exploration/docs/120125EXNI453GPTWaterAllianceWitnessExhibits.pdf", "extraction_method": "pdfplumber", "sections_count": 14, "geometry_source": "plss_section", "approximate_location": false, "centroid_lon": -103.2461, "centroid_lat": 44.32957 }, "geometry": { "type": "MultiPolygon", "coordinates": [ [ [ [ -103.256170241066172, 44.322318840579705 ], [ -103.236022942645633, 44.322318840579705 ], [ -103.236022942645633, 44.336811594202892 ], [ -103.256170241066172, 44.336811594202892 ], [ -103.256170241066172, 44.322318840579705 ] ] ], [ [ [ -103.155433748963517, 44.148405797101447 ], [ -103.135286450542978, 44.148405797101447 ], [ -103.135286450542978, 44.162898550724634 ], [ -103.155433748963517, 44.162898550724634 ], [ -103.155433748963517, 44.148405797101447 ] ] ], [ [ [ -103.155433748963517, 44.133913043478259 ], [ -103.135286450542978, 44.133913043478259 ], [ -103.135286450542978, 44.148405797101447 ], [ -103.155433748963517, 44.148405797101447 ], [ -103.155433748963517, 44.133913043478259 ] ] ], [ [ [ -103.377054031589367, 44.046956521739126 ], [ -103.356906733168827, 44.046956521739126 ], [ -103.356906733168827, 44.061449275362314 ], [ -103.377054031589367, 44.061449275362314 ], [ -103.377054031589367, 44.046956521739126 ] ] ], [ [ [ -103.074844555281388, 44.191884057971016 ], [ -103.054697256860848, 44.191884057971016 ], [ -103.054697256860848, 44.206376811594204 ], [ -103.074844555281388, 44.206376811594204 ], [ -103.074844555281388, 44.191884057971016 ] ] ], [ [ [ -103.135286450542978, 44.148405797101447 ], [ -103.115139152122438, 44.148405797101447 ], [ -103.115139152122438, 44.162898550724634 ], [ -103.135286450542978, 44.162898550724634 ], [ -103.135286450542978, 44.148405797101447 ] ] ], [ [ [ -103.256170241066172, 44.264347826086954 ], [ -103.236022942645633, 44.264347826086954 ], [ -103.236022942645633, 44.278840579710142 ], [ -103.256170241066172, 44.278840579710142 ], [ -103.256170241066172, 44.264347826086954 ] ] ], [ [ [ -103.215875644225122, 44.235362318840572 ], [ -103.195728345804582, 44.235362318840572 ], [ -103.195728345804582, 44.24985507246376 ], [ -103.215875644225122, 44.24985507246376 ], [ -103.215875644225122, 44.235362318840572 ] ] ], [ [ [ -103.598674314215216, 43.771594202898548 ], [ -103.578527015794677, 43.771594202898548 ], [ -103.578527015794677, 43.786086956521736 ], [ -103.598674314215216, 43.786086956521736 ], [ -103.598674314215216, 43.771594202898548 ] ] ], [ [ [ -103.276317539486712, 44.322318840579705 ], [ -103.256170241066172, 44.322318840579705 ], [ -103.256170241066172, 44.336811594202892 ], [ -103.276317539486712, 44.336811594202892 ], [ -103.276317539486712, 44.322318840579705 ] ] ], [ [ [ -103.638968911056281, 43.829565217391306 ], [ -103.618821612635742, 43.829565217391306 ], [ -103.618821612635742, 43.844057971014493 ], [ -103.638968911056281, 43.844057971014493 ], [ -103.638968911056281, 43.829565217391306 ] ] ], [ [ [ -103.195728345804582, 44.278840579710142 ], [ -103.175581047384043, 44.278840579710142 ], [ -103.175581047384043, 44.293333333333329 ], [ -103.195728345804582, 44.293333333333329 ], [ -103.195728345804582, 44.278840579710142 ] ] ], [ [ [ -103.618821612635742, 43.829565217391306 ], [ -103.598674314215202, 43.829565217391306 ], [ -103.598674314215202, 43.844057971014493 ], [ -103.618821612635742, 43.844057971014493 ], [ -103.618821612635742, 43.829565217391306 ] ] ], [ [ [ -103.296464837907237, 44.177391304347829 ], [ -103.276317539486698, 44.177391304347829 ], [ -103.276317539486698, 44.191884057971016 ], [ -103.296464837907237, 44.191884057971016 ], [ -103.296464837907237, 44.177391304347829 ] ] ] ] } },
{ "type": "Feature", "properties": { "name": "EXNI462App", "type": "Uranium Exploration Permit", "applicant": "Uranium Exploration Permit Application NOTE: In compliance with SDCL 45-6D-15, maps submitted with the application that ", "county": "Fall River", "status": "Unknown", "source_pdf": "EXNI462App.pdf", "source_url": "https://danr.sd.gov/Environment/MineralsMining/Exploration/docs/EXNI462App.pdf", "extraction_method": "ocr", "sections_count": 21, "geometry_source": "plss_section", "approximate_location": false, "centroid_lon": -103.54831, "centroid_lat": 43.37304 }, "geometry": { "type": "MultiPolygon", "coordinates": [ [ [ [ -103.558379717374152, 43.365797101449267 ], [ -103.538232418953612, 43.365797101449267 ], [ -103.538232418953612, 43.380289855072455 ], [ -103.558379717374152, 43.380289855072455 ], [ -103.558379717374152, 43.365797101449267 ] ] ], [ [ [ -103.659116209476807, 43.365797101449267 ], [ -103.638968911056267, 43.365797101449267 ], [ -103.638968911056267, 43.380289855072455 ], [ -103.659116209476807, 43.380289855072455 ], [ -103.659116209476807, 43.365797101449267 ] ] ], [ [ [ -103.558379717374152, 43.35130434782608 ], [ -103.538232418953612, 43.35130434782608 ], [ -103.538232418953612, 43.365797101449267 ], [ -103.558379717374152, 43.365797101449267 ], [ -103.558379717374152, 43.35130434782608 ] ] ], [ [ [ -103.578527015794691, 43.35130434782608 ], [ -103.558379717374152, 43.35130434782608 ], [ -103.558379717374152, 43.365797101449267 ], [ -103.578527015794691, 43.365797101449267 ], [ -103.578527015794691, 43.35130434782608 ] ] ], [ [ [ -103.578527015794691, 43.336811594202899 ], [ -103.558379717374152, 43.336811594202899 ], [ -103.558379717374152, 43.351304347826087 ], [ -103.578527015794691, 43.351304347826087 ], [ -103.578527015794691, 43.336811594202899 ] ] ], [ [ [ -103.598674314215216, 43.336811594202899 ], [ -103.578527015794677, 43.336811594202899 ], [ -103.578527015794677, 43.351304347826087 ], [ -103.598674314215216, 43.351304347826087 ], [ -103.598674314215216, 43.336811594202899 ] ] ], [ [ [ -103.558379717374152, 43.39478260869565 ], [ -103.538232418953612, 43.39478260869565 ], [ -103.538232418953612, 43.409275362318837 ], [ -103.558379717374152, 43.409275362318837 ], [ -103.558379717374152, 43.39478260869565 ] ] ], [ [ [ -103.518085120533087, 43.380289855072462 ], [ -103.497937822112547, 43.380289855072462 ], [ -103.497937822112547, 43.39478260869565 ], [ -103.518085120533087, 43.39478260869565 ], [ -103.518085120533087, 43.380289855072462 ] ] ], [ [ [ -103.518085120533087, 43.307826086956524 ], [ -103.497937822112547, 43.307826086956524 ], [ -103.497937822112547, 43.322318840579712 ], [ -103.518085120533087, 43.322318840579712 ], [ -103.518085120533087, 43.307826086956524 ] ] ], [ [ [ -103.518085120533087, 43.336811594202899 ], [ -103.497937822112547, 43.336811594202899 ], [ -103.497937822112547, 43.351304347826087 ], [ -103.518085120533087, 43.351304347826087 ], [ -103.518085120533087, 43.336811594202899 ] ] ], [ [ [ -103.538232418953612, 43.35130434782608 ], [ -103.518085120533073, 43.35130434782608 ], [ -103.518085120533073, 43.365797101449267 ], [ -103.538232418953612, 43.365797101449267 ], [ -103.538232418953612, 43.35130434782608 ] ] ], [ [ [ -103.638968911056281, 43.423768115942025 ], [ -103.618821612635742, 43.423768115942025 ], [ -103.618821612635742, 43.438260869565212 ], [ -103.638968911056281, 43.438260869565212 ], [ -103.638968911056281, 43.423768115942025 ] ] ], [ [ [ -103.598674314215216, 43.380289855072462 ], [ -103.578527015794677, 43.380289855072462 ], [ -103.578527015794677, 43.39478260869565 ], [ -103.598674314215216, 43.39478260869565 ], [ -103.598674314215216, 43.380289855072462 ] ] ], [ [ [ -103.155433748963517, 43.264347826086954 ], [ -103.135286450542978, 43.264347826086954 ], [ -103.135286450542978, 43.278840579710142 ], [ -103.155433748963517, 43.278840579710142 ], [ -103.155433748963517, 43.264347826086954 ] ] ], [ [ [ -103.437495926850957, 43.336811594202899 ], [ -103.417348628430418, 43.336811594202899 ], [ -103.417348628430418, 43.351304347826087 ], [ -103.437495926850957, 43.351304347826087 ], [ -103.437495926850957, 43.336811594202899 ] ] ], [ [ [ -103.437495926850957, 43.35130434782608 ], [ -103.417348628430418, 43.35130434782608 ], [ -103.417348628430418, 43.365797101449267 ], [ -103.437495926850957, 43.365797101449267 ], [ -103.437495926850957, 43.35130434782608 ] ] ], [ [ [ -103.437495926850957, 43.365797101449267 ], [ -103.417348628430418, 43.365797101449267 ], [ -103.417348628430418, 43.380289855072455 ], [ -103.437495926850957, 43.380289855072455 ], [ -103.437495926850957, 43.365797101449267 ] ] ], [ [ [ -103.538232418953612, 43.365797101449267 ], [ -103.518085120533073, 43.365797101449267 ], [ -103.518085120533073, 43.380289855072455 ], [ -103.538232418953612, 43.380289855072455 ], [ -103.538232418953612, 43.365797101449267 ] ] ], [ [ [ -103.659116209476807, 43.35130434782608 ], [ -103.638968911056267, 43.35130434782608 ], [ -103.638968911056267, 43.365797101449267 ], [ -103.659116209476807, 43.365797101449267 ], [ -103.659116209476807, 43.35130434782608 ] ] ], [ [ [ -103.558379717374152, 44.481739130434782 ], [ -103.538232418953612, 44.481739130434782 ], [ -103.538232418953612, 44.49623188405797 ], [ -103.558379717374152, 44.49623188405797 ], [ -103.558379717374152, 44.481739130434782 ] ] ], [ [ [ -103.578527015794691, 43.365797101449267 ], [ -103.558379717374152, 43.365797101449267 ], [ -103.558379717374152, 43.380289855072455 ], [ -103.578527015794691, 43.380289855072455 ], [ -103.578527015794691, 43.365797101449267 ] ] ] ] } },
{ "type": "Feature", "properties": { "name": "EXNI469App", "type": "Uranium Exploration Permit", "applicant": "EXNI Application In compliance with SDCL 45-6C-14, maps submitted with the application that show test hole locations are", "county": "Pennington", "status": "Unknown", "source_pdf": "EXNI469App.pdf", "source_url": "https://danr.sd.gov/Environment/MineralsMining/Exploration/docs/EXNI469App.pdf", "extraction_method": "pdfplumber", "sections_count": 6, "geometry_source": "plss_section", "approximate_location": false, "centroid_lon": -103.46772, "centroid_lat": 44.03971 }, "geometry": { "type": "MultiPolygon", "coordinates": [ [ [ [ -103.477790523692022, 44.032463768115939 ], [ -103.457643225271482, 44.032463768115939 ], [ -103.457643225271482, 44.046956521739126 ], [ -103.477790523692022, 44.046956521739126 ], [ -103.477790523692022, 44.032463768115939 ] ] ], [ [ [ -103.497937822112547, 44.032463768115939 ], [ -103.477790523692008, 44.032463768115939 ], [ -103.477790523692008, 44.046956521739126 ], [ -103.497937822112547, 44.046956521739126 ], [ -103.497937822112547, 44.032463768115939 ] ] ], [ [ [ -103.518085120533087, 44.032463768115939 ], [ -103.497937822112547, 44.032463768115939 ], [ -103.497937822112547, 44.046956521739126 ], [ -103.518085120533087, 44.046956521739126 ], [ -103.518085120533087, 44.032463768115939 ] ] ], [ [ [ -103.437495926850957, 44.061449275362314 ], [ -103.417348628430418, 44.061449275362314 ], [ -103.417348628430418, 44.075942028985502 ], [ -103.437495926850957, 44.075942028985502 ], [ -103.437495926850957, 44.061449275362314 ] ] ], [ [ [ -103.538232418953612, 44.061449275362314 ], [ -103.518085120533073, 44.061449275362314 ], [ -103.518085120533073, 44.075942028985502 ], [ -103.538232418953612, 44.075942028985502 ], [ -103.538232418953612, 44.061449275362314 ] ] ], [ [ [ -103.497937822112547, 44.046956521739126 ], [ -103.477790523692008, 44.046956521739126 ], [ -103.477790523692008, 44.061449275362314 ], [ -103.497937822112547, 44.061449275362314 ], [ -103.497937822112547, 44.046956521739126 ] ] ] ] } },
{ "type": "Feature", "properties": { "name": "EXNI469CountyNotification", "type": "EXNI", "applicant": "DANR Notification to the Pennington County Commission", "county": "Pennington", "status": "Unknown", "source_pdf": "EXNI469CountyNotification.pdf", "source_url": "https://danr.sd.gov/Environment/MineralsMining/Exploration/docs/EXNI469CountyNotification.pdf", "extraction_method": "pdfplumber", "sections_count": 3, "geometry_source": "plss_section", "approximate_location": false, "centroid_lon": -103.52816, "centroid_lat": 43.98174 }, "geometry": { "type": "MultiPolygon", "coordinates": [ [ [ [ -103.538232418953612, 43.974492753623181 ], [ -103.518085120533073, 43.974492753623181 ], [ -103.518085120533073, 43.988985507246369 ], [ -103.538232418953612, 43.988985507246369 ], [ -103.538232418953612, 43.974492753623181 ] ] ], [ [ [ -103.497937822112547, 43.96 ], [ -103.477790523692008, 43.96 ], [ -103.477790523692008, 43.974492753623181 ], [ -103.497937822112547, 43.974492753623181 ], [ -103.497937822112547, 43.96 ] ] ], [ [ [ -103.437495926850957, 44.061449275362314 ], [ -103.417348628430418, 44.061449275362314 ], [ -103.417348628430418, 44.075942028985502 ], [ -103.437495926850957, 44.075942028985502 ], [ -103.437495926850957, 44.061449275362314 ] ] ] ] } },
{ "type": "Feature", "properties": { "name": "EXNI469NoticeofIntent", "type": "EXNI", "applicant": "Notice of Filing", "county": "Pennington", "status": "Unknown", "source_pdf": "EXNI469NoticeofIntent.pdf", "source_url": "https://danr.sd.gov/Environment/MineralsMining/Exploration/docs/EXNI469NoticeofIntent.pdf", "extraction_method": "pdfplumber", "sections_count": 3, "geometry_source": "plss_section", "approximate_location": false, "centroid_lon": -103.52816, "centroid_lat": 43.98174 }, "geometry": { "type": "MultiPolygon", "coordinates": [ [ [ [ -103.538232418953612, 43.974492753623181 ], [ -103.518085120533073, 43.974492753623181 ], [ -103.518085120533073, 43.988985507246369 ], [ -103.538232418953612, 43.988985507246369 ], [ -103.538232418953612, 43.974492753623181 ] ] ], [ [ [ -103.497937822112547, 43.96 ], [ -103.477790523692008, 43.96 ], [ -103.477790523692008, 43.974492753623181 ], [ -103.497937822112547, 43.974492753623181 ], [ -103.497937822112547, 43.96 ] ] ], [ [ [ -103.437495926850957, 44.061449275362314 ], [ -103.417348628430418, 44.061449275362314 ], [ -103.417348628430418, 44.075942028985502 ], [ -103.437495926850957, 44.075942028985502 ], [ -103.437495926850957, 44.061449275362314 ] ] ] ] } },
{ "type": "Feature", "properties": { "name": "EXNI469SupplementalInfo", "type": "Uranium Exploration Permit", "applicant": "Response to DANR Comments Submitted by Pete Lien and Sons", "county": "Pennington", "status": "Unknown", "source_pdf": "EXNI469SupplementalInfo.pdf", "source_url": "https://danr.sd.gov/Environment/MineralsMining/Exploration/docs/EXNI469SupplementalInfo.pdf", "extraction_method": "ocr", "sections_count": 7, "geometry_source": "plss_section", "approximate_location": false, "centroid_lon": -103.54831, "centroid_lat": 44.0687 }, "geometry": { "type": "MultiPolygon", "coordinates": [ [ [ [ -103.558379717374152, 44.061449275362314 ], [ -103.538232418953612, 44.061449275362314 ], [ -103.538232418953612, 44.075942028985502 ], [ -103.558379717374152, 44.075942028985502 ], [ -103.558379717374152, 44.061449275362314 ] ] ], [ [ [ -103.538232418953612, 44.061449275362314 ], [ -103.518085120533073, 44.061449275362314 ], [ -103.518085120533073, 44.075942028985502 ], [ -103.538232418953612, 44.075942028985502 ], [ -103.538232418953612, 44.061449275362314 ] ] ], [ [ [ -103.518085120533087, 44.046956521739126 ], [ -103.497937822112547, 44.046956521739126 ], [ -103.497937822112547, 44.061449275362314 ], [ -103.518085120533087, 44.061449275362314 ], [ -103.518085120533087, 44.046956521739126 ] ] ], [ [ [ -103.497937822112547, 44.046956521739126 ], [ -103.477790523692008, 44.046956521739126 ], [ -103.477790523692008, 44.061449275362314 ], [ -103.497937822112547, 44.061449275362314 ], [ -103.497937822112547, 44.046956521739126 ] ] ], [ [ [ -103.477790523692022, 44.032463768115939 ], [ -103.457643225271482, 44.032463768115939 ], [ -103.457643225271482, 44.046956521739126 ], [ -103.477790523692022, 44.046956521739126 ], [ -103.477790523692022, 44.032463768115939 ] ] ], [ [ [ -103.497937822112547, 44.032463768115939 ], [ -103.477790523692008, 44.032463768115939 ], [ -103.477790523692008, 44.046956521739126 ], [ -103.497937822112547, 44.046956521739126 ], [ -103.497937822112547, 44.032463768115939 ] ] ], [ [ [ -103.518085120533087, 44.032463768115939 ], [ -103.497937822112547, 44.032463768115939 ], [ -103.497937822112547, 44.046956521739126 ], [ -103.518085120533087, 44.046956521739126 ], [ -103.518085120533087, 44.032463768115939 ] ] ] ] } },
{ "type": "Feature", "properties": { "name": "EXNI469RestrictionLetter", "type": "EXNI", "applicant": "DANR Restriction Letter", "county": "Pennington", "status": "Unknown", "source_pdf": "EXNI469RestrictionLetter.pdf", "source_url": "https://danr.sd.gov/Environment/MineralsMining/Exploration/docs/EXNI469RestrictionLetter.pdf", "extraction_method": "ocr", "sections_count": 4, "geometry_source": "plss_section", "approximate_location": false, "centroid_lon": -103.46772, "centroid_lat": 44.12667 }, "geometry": { "type": "MultiPolygon", "coordinates": [ [ [ [ -103.477790523692022, 44.119420289855071 ], [ -103.457643225271482, 44.119420289855071 ], [ -103.457643225271482, 44.133913043478259 ], [ -103.477790523692022, 44.133913043478259 ], [ -103.477790523692022, 44.119420289855071 ] ] ], [ [ [ -103.497937822112547, 44.119420289855071 ], [ -103.477790523692008, 44.119420289855071 ], [ -103.477790523692008, 44.133913043478259 ], [ -103.497937822112547, 44.133913043478259 ], [ -103.497937822112547, 44.119420289855071 ] ] ], [ [ [ -103.437495926850957, 44.061449275362314 ], [ -103.417348628430418, 44.061449275362314 ], [ -103.417348628430418, 44.075942028985502 ], [ -103.437495926850957, 44.075942028985502 ], [ -103.437495926850957, 44.061449275362314 ] ] ], [ [ [ -103.538232418953612, 44.061449275362314 ], [ -103.518085120533073, 44.061449275362314 ], [ -103.518085120533073, 44.075942028985502 ], [ -103.538232418953612, 44.075942028985502 ], [ -103.538232418953612, 44.061449275362314 ] ] ] ] } },
{ "type": "Feature", "properties": { "name": "EXNI470App", "type": "Uranium Exploration Permit", "applicant": "EXNI Application In compliance with SDCL 45-6C-14, maps submitted with the application that show test hole locations are", "county": "Lawrence", "status": "Unknown", "source_pdf": "EXNI470App.pdf", "source_url": "https://danr.sd.gov/Environment/MineralsMining/Exploration/docs/EXNI470App.pdf", "extraction_method": "pdfplumber", "sections_count": 10, "geometry_source": "plss_section", "approximate_location": false, "centroid_lon": -103.60875, "centroid_lat": 44.24261 }, "geometry": { "type": "MultiPolygon", "coordinates": [ [ [ [ -103.618821612635742, 44.235362318840572 ], [ -103.598674314215202, 44.235362318840572 ], [ -103.598674314215202, 44.24985507246376 ], [ -103.618821612635742, 44.24985507246376 ], [ -103.618821612635742, 44.235362318840572 ] ] ], [ [ [ -103.638968911056281, 44.220869565217384 ], [ -103.618821612635742, 44.220869565217384 ], [ -103.618821612635742, 44.235362318840572 ], [ -103.638968911056281, 44.235362318840572 ], [ -103.638968911056281, 44.220869565217384 ] ] ], [ [ [ -103.618821612635742, 44.206376811594204 ], [ -103.598674314215202, 44.206376811594204 ], [ -103.598674314215202, 44.220869565217392 ], [ -103.618821612635742, 44.220869565217392 ], [ -103.618821612635742, 44.206376811594204 ] ] ], [ [ [ -103.638968911056281, 44.206376811594204 ], [ -103.618821612635742, 44.206376811594204 ], [ -103.618821612635742, 44.220869565217392 ], [ -103.638968911056281, 44.220869565217392 ], [ -103.638968911056281, 44.206376811594204 ] ] ], [ [ [ -103.659116209476807, 44.206376811594204 ], [ -103.638968911056267, 44.206376811594204 ], [ -103.638968911056267, 44.220869565217392 ], [ -103.659116209476807, 44.220869565217392 ], [ -103.659116209476807, 44.206376811594204 ] ] ], [ [ [ -103.659116209476807, 44.191884057971016 ], [ -103.638968911056267, 44.191884057971016 ], [ -103.638968911056267, 44.206376811594204 ], [ -103.659116209476807, 44.206376811594204 ], [ -103.659116209476807, 44.191884057971016 ] ] ], [ [ [ -103.638968911056281, 44.191884057971016 ], [ -103.618821612635742, 44.191884057971016 ], [ -103.618821612635742, 44.206376811594204 ], [ -103.638968911056281, 44.206376811594204 ], [ -103.638968911056281, 44.191884057971016 ] ] ], [ [ [ -103.618821612635742, 44.191884057971016 ], [ -103.598674314215202, 44.191884057971016 ], [ -103.598674314215202, 44.206376811594204 ], [ -103.618821612635742, 44.206376811594204 ], [ -103.618821612635742, 44.191884057971016 ] ] ], [ [ [ -103.739705403158936, 44.249855072463767 ], [ -103.719558104738397, 44.249855072463767 ], [ -103.719558104738397, 44.264347826086954 ], [ -103.739705403158936, 44.264347826086954 ], [ -103.739705403158936, 44.249855072463767 ] ] ], [ [ [ -103.719558104738411, 44.249855072463767 ], [ -103.699410806317871, 44.249855072463767 ], [ -103.699410806317871, 44.264347826086954 ], [ -103.719558104738411, 44.264347826086954 ], [ -103.719558104738411, 44.249855072463767 ] ] ] ] } },
{ "type": "Feature", "properties": { "name": "EXNI470NOF", "type": "EXNI", "applicant": "Notice of Filing", "county": "Lawrence", "status": "Unknown", "source_pdf": "EXNI470NOF.pdf", "source_url": "https://danr.sd.gov/Environment/MineralsMining/Exploration/docs/EXNI470NOF.pdf", "extraction_method": "pdfplumber", "sections_count": 8, "geometry_source": "plss_section", "approximate_location": false, "centroid_lon": -103.60875, "centroid_lat": 44.30058 }, "geometry": { "type": "MultiPolygon", "coordinates": [ [ [ [ -103.618821612635742, 44.293333333333329 ], [ -103.598674314215202, 44.293333333333329 ], [ -103.598674314215202, 44.307826086956517 ], [ -103.618821612635742, 44.307826086956517 ], [ -103.618821612635742, 44.293333333333329 ] ] ], [ [ [ -103.638968911056281, 44.293333333333329 ], [ -103.618821612635742, 44.293333333333329 ], [ -103.618821612635742, 44.307826086956517 ], [ -103.638968911056281, 44.307826086956517 ], [ -103.638968911056281, 44.293333333333329 ] ] ], [ [ [ -103.659116209476807, 44.293333333333329 ], [ -103.638968911056267, 44.293333333333329 ], [ -103.638968911056267, 44.307826086956517 ], [ -103.659116209476807, 44.307826086956517 ], [ -103.659116209476807, 44.293333333333329 ] ] ], [ [ [ -103.659116209476807, 44.278840579710142 ], [ -103.638968911056267, 44.278840579710142 ], [ -103.638968911056267, 44.293333333333329 ], [ -103.659116209476807, 44.293333333333329 ], [ -103.659116209476807, 44.278840579710142 ] ] ], [ [ [ -103.638968911056281, 44.278840579710142 ], [ -103.618821612635742, 44.278840579710142 ], [ -103.618821612635742, 44.293333333333329 ], [ -103.638968911056281, 44.293333333333329 ], [ -103.638968911056281, 44.278840579710142 ] ] ], [ [ [ -103.618821612635742, 44.278840579710142 ], [ -103.598674314215202, 44.278840579710142 ], [ -103.598674314215202, 44.293333333333329 ], [ -103.618821612635742, 44.293333333333329 ], [ -103.618821612635742, 44.278840579710142 ] ] ], [ [ [ -103.618821612635742, 44.162898550724641 ], [ -103.598674314215202, 44.162898550724641 ], [ -103.598674314215202, 44.177391304347829 ], [ -103.618821612635742, 44.177391304347829 ], [ -103.618821612635742, 44.162898550724641 ] ] ], [ [ [ -103.598674314215216, 44.162898550724641 ], [ -103.578527015794677, 44.162898550724641 ], [ -103.578527015794677, 44.177391304347829 ], [ -103.598674314215216, 44.177391304347829 ], [ -103.598674314215216, 44.162898550724641 ] ] ] ] } },
{ "type": "Feature", "properties": { "name": "EXNI470CountyNotice", "type": "EXNI", "applicant": "DANR Notification to the Lawrence County Commission", "county": "Lawrence", "status": "Unknown", "source_pdf": "EXNI470CountyNotice.pdf", "source_url": "https://danr.sd.gov/Environment/MineralsMining/Exploration/docs/EXNI470CountyNotice.pdf", "extraction_method": "pdfplumber", "sections_count": 6, "geometry_source": "plss_section", "approximate_location": false, "centroid_lon": -103.60875, "centroid_lat": 44.30058 }, "geometry": { "type": "MultiPolygon", "coordinates": [ [ [ [ -103.618821612635742, 44.293333333333329 ], [ -103.598674314215202, 44.293333333333329 ], [ -103.598674314215202, 44.307826086956517 ], [ -103.618821612635742, 44.307826086956517 ], [ -103.618821612635742, 44.293333333333329 ] ] ], [ [ [ -103.638968911056281, 44.293333333333329 ], [ -103.618821612635742, 44.293333333333329 ], [ -103.618821612635742, 44.307826086956517 ], [ -103.638968911056281, 44.307826086956517 ], [ -103.638968911056281, 44.293333333333329 ] ] ], [ [ [ -103.659116209476807, 44.293333333333329 ], [ -103.638968911056267, 44.293333333333329 ], [ -103.638968911056267, 44.307826086956517 ], [ -103.659116209476807, 44.307826086956517 ], [ -103.659116209476807, 44.293333333333329 ] ] ], [ [ [ -103.659116209476807, 44.278840579710142 ], [ -103.638968911056267, 44.278840579710142 ], [ -103.638968911056267, 44.293333333333329 ], [ -103.659116209476807, 44.293333333333329 ], [ -103.659116209476807, 44.278840579710142 ] ] ], [ [ [ -103.638968911056281, 44.278840579710142 ], [ -103.618821612635742, 44.278840579710142 ], [ -103.618821612635742, 44.293333333333329 ], [ -103.638968911056281, 44.293333333333329 ], [ -103.638968911056281, 44.278840579710142 ] ] ], [ [ [ -103.618821612635742, 44.278840579710142 ], [ -103.598674314215202, 44.278840579710142 ], [ -103.598674314215202, 44.293333333333329 ], [ -103.618821612635742, 44.293333333333329 ], [ -103.618821612635742, 44.278840579710142 ] ] ] ] } }
]
}
